[{"OBJECT_NAME":"IONOSFERA-M 2","OBJECT_ID":"2024-199B","EPOCH":"2026-03-09T22:15:30.586176","MEAN_MOTION":14.22737815,"ECCENTRICITY":3.184e-5,"INCLINATION":98.7324,"RA_OF_ASC_NODE":302.9812,"ARG_OF_PERICENTER":122.4874,"MEAN_ANOMALY":237.6335,"EPHEMERIS_TYPE":0,"CLASSIFICATION_TYPE":"U","NORAD_CAT_ID":61736,"ELEMENT_SET_NO":999,"REV_AT_EPOCH":11671,"BSTAR":4.5235484e-5,"MEAN_MOTION_DOT":5.7e-7,"MEAN_MOTION_DDOT":0},{"OBJECT_NAME":"CZ-6A DEB","OBJECT_ID":"2024-140UH","EPOCH":"2026-03-09T00:42:19.706400","MEAN_MOTION":14.25995496,"ECCENTRICITY":0.00174961,"INCLINATION":88.9946,"RA_OF_ASC_NODE":285.2844,"ARG_OF_PERICENTER":122.7245,"MEAN_ANOMALY":237.5638,"EPHEMERIS_TYPE":0,"CLASSIFICATION_TYPE":"U","NORAD_CAT_ID":61320,"ELEMENT_SET_NO":999,"REV_AT_EPOCH":7929,"BSTAR":0.00019412771,"MEAN_MOTION_DOT":4.78e-6,"MEAN_MOTION_DDOT":0}]
